LANDSAT 9               
1 49260U 21088A   23364.21434807  .00000627  00000+0  14910-3 0  9999
2 49260  98.2095  71.5421 0001116  91.2285 268.9042 14.57122045119948
